NORAD_CAT_ID,OBJECT_NAME,OBJECT_TYPE,EPOCH,MEAN_MOTION,ECCENTRICITY,INCLINATION,RA_OF_ASC_NODE,ARG_OF_PERICENTER,MEAN_ANOMALY,BSTAR,MEAN_MOTION_DOT,MEAN_MOTION_DDOT,TLE_LINE0,TLE_LINE1,TLE_LINE2,SEMIMAJOR_AXIS,PERIOD,APOGEE,PERIGEE,DECAYED
52880.0,STARLINK-4186,PAYLOAD,2022-12-01 17:47:47,15.08847579,0.0002138,53.2197,333.9568,47.4841,312.6332,0.00017697,2.53e-05,0.0,0 STARLINK-4186,1 52880U 22062BC  22335.74152092  .00002530  00000-0  17697-3 0  9993,2 52880  53.2197 333.9568 0002138  47.4841 312.6332 15.08847579 25822,6917.857,95.437,541.201,538.243,0.0
52880.0,STARLINK-4186,PAYLOAD,2022-12-02 00:09:20,15.0884562,0.0002313,53.2197,332.7674,43.12600000000001,316.9913,0.00021858,3.193e-05,0.0,0 STARLINK-4186,1 52880U 22062BC  22336.00648201  .00003193  00000-0  21858-3 0  9995,2 52880  53.2197 332.7674 0002313  43.1260 316.9913 15.08845620 26356,6917.863,95.437,541.328,538.128,0.0
52880.0,STARLINK-4186,PAYLOAD,2022-12-02 09:41:38,15.0884231,0.0002334,53.2199,330.9833,39.5761,320.5401,8.0966e-05,1.001e-05,0.0,0 STARLINK-4186,1 52880U 22062BC  22336.40392296  .00001001  00000-0  80966-4 0  9991,2 52880  53.2199 330.9833 0002334  39.5761 320.5401 15.08842310 25921,6917.873000000001,95.437,541.3530000000002,538.124,0.0
52880.0,STARLINK-4186,PAYLOAD,2022-12-03 06:21:40,15.08833143,0.0002349,53.2196,327.1176,41.4674,318.6496,0.00018125,2.597e-05,0.0,0 STARLINK-4186,1 52880U 22062BC  22337.26504682  .00002597  00000-0  18125-3 0  9998,2 52880  53.2196 327.1176 0002349  41.4674 318.6496 15.08833143 26542,6917.901,95.438,541.391,538.141,0.0
52880.0,STARLINK-4186,PAYLOAD,2022-12-03 11:07:49,15.08837745,0.0002339,53.2204,326.2266,39.5741,320.5421,7.5424e-05,9.12e-06,0.0,0 STARLINK-4186,1 52880U 22062BC  22337.46376617  .00000912  00000-0  75424-4 0  9990,2 52880  53.2204 326.2266 0002339  39.5741 320.5421 15.08837745 26085,6917.887,95.438,541.37,538.134,0.0
52880.0,STARLINK-4186,PAYLOAD,2022-12-03 15:53:59,15.08832499,0.0002438,53.2196,325.3331,41.1971,318.9205,-2.7082e-05,-7.19e-06,0.0,0 STARLINK-4186,1 52880U 22062BC  22337.66249295 -.00000719  00000-0 -27082-4 0  9997,2 52880  53.2196 325.3331 0002438  41.1971 318.9205 15.08832499 26118,6917.903,95.438,541.455,538.082,0.0
52880.0,STARLINK-4186,PAYLOAD,2022-12-04 07:47:50,15.0883966,0.0002353,53.2193,322.3602,37.9202,322.1955,9.1156e-05,1.163e-05,0.0,0 STARLINK-4186,1 52880U 22062BC  22338.32488677  .00001163  00000-0  91156-4 0  9995,2 52880  53.2193 322.3602 0002353  37.9202 322.1955 15.08839660 26700,6917.880999999999,95.438,541.374,538.119,0.0
52880.0,STARLINK-4186,PAYLOAD,2022-12-05 09:14:00,15.08843436,0.0002361,53.2195,317.6033,40.7503,319.3665,0.00012251,1.662e-05,0.0,0 STARLINK-4186,1 52880U 22062BC  22339.38472554  .00001662  00000-0  12251-3 0  9991,2 52880  53.2195 317.6033 0002361  40.7503 319.3665 15.08843436 26861,6917.87,95.437,541.368,538.102,0.0
52880.0,STARLINK-4186,PAYLOAD,2022-12-05 15:35:32,15.08839461,0.0002321,53.2181,316.4135,37.3296,322.7857,4.8445e-05,4.83e-06,0.0,0 STARLINK-4186,1 52880U 22062BC  22339.64968624  .00000483  00000-0  48445-4 0  9993,2 52880  53.2181 316.4135 0002321  37.3296 322.7857 15.08839461 26418,6917.882,95.438,541.3530000000002,538.141,0.0
52880.0,STARLINK-4186,PAYLOAD,2022-12-06 02:43:13,15.08860979,0.000217,53.2196,314.3308,35.762,324.3517,0.00030187,4.522e-05,0.0,0 STARLINK-4186,1 52880U 22062BC  22340.11334900  .00004522  00000-0  30187-3 0  9992,2 52880  53.2196 314.3308 0002170  35.7620 324.3517 15.08860979 26978,6917.816,95.436,541.182,538.18,0.0
52880.0,STARLINK-4186,PAYLOAD,2022-12-06 07:29:23,15.08843469,0.0002482,53.2189,313.4398,35.5007,324.615,-1.7452e-05,-5.66e-06,0.0,0 STARLINK-4186,1 52880U 22062BC  22340.31208052 -.00000566  00000-0 -17452-4 0  9999,2 52880  53.2189 313.4398 0002482  35.5007 324.6150 15.08843469 27008,6917.87,95.437,541.452,538.018,0.0
52880.0,STARLINK-4186,PAYLOAD,2022-12-07 07:20:11,15.08835642,0.0002599,53.2191,308.9795,36.3403,323.7765,-8.515799999999999e-05,-1.643e-05,0.0,0 STARLINK-4186,1 52880U 22062BC  22341.30568561 -.00001643  00000-0 -85158-4 0  9998,2 52880  53.2191 308.9795 0002599  36.3403 323.7765 15.08835642 27151,6917.894,95.438,541.557,537.961,0.0
52880.0,STARLINK-4186,PAYLOAD,2022-12-07 15:17:06,15.08836078,0.0002354,53.2189,307.4917,35.1043,325.0104,-2.9597e-05,-7.59e-06,0.0,0 STARLINK-4186,1 52880U 22062BC  22341.63688617 -.00000759  00000-0 -29597-4 0  9991,2 52880  53.2189 307.4917 0002354  35.1043 325.0104 15.08836078 26711,6917.892,95.438,541.386,538.129,0.0
52880.0,STARLINK-4186,PAYLOAD,2022-12-08 04:00:11,15.08850457,0.0002293,53.2197,305.1146,41.555,318.5616,9.4482e-05,1.216e-05,0.0,0 STARLINK-4186,1 52880U 22062BC  22342.16679984  .00001216  00000-0  94482-4 0  9999,2 52880  53.2197 305.1146 0002293  41.5550 318.5616 15.08850457 27280,6917.848000000001,95.437,541.3,538.127,0.0
52880.0,STARLINK-4186,PAYLOAD,2022-12-08 08:46:20,15.08858187,0.0002216,53.2191,304.2217,37.2208,322.8937,0.000237,3.488e-05,0.0,0 STARLINK-4186,1 52880U 22062BC  22342.36551549  .00003488  00000-0  23700-3 0  9994,2 52880  53.2191 304.2217 0002216  37.2208 322.8937 15.08858187 26821,6917.825,95.436,541.2230000000002,538.1569999999998,0.0
52880.0,STARLINK-4186,PAYLOAD,2022-12-08 15:07:53,15.08851793,0.0002516,53.2197,303.0335,30.6158,329.4980000000001,0.00037008,5.608e-05,0.0,0 STARLINK-4186,1 52880U 22062BC  22342.63047775  .00005608  00000-0  37008-3 0  9997,2 52880  53.2197 303.0335 0002516  30.6158 329.4980 15.08851793 26860,6917.844,95.437,541.45,537.969,0.0
52880.0,STARLINK-4186,PAYLOAD,2022-12-09 07:01:43,15.08858306,0.0001776999999999,53.2196,300.0609,30.8469,329.2627,0.00024907,3.68e-05,0.0,0 STARLINK-4186,1 52880U 22062BC  22343.29286842  .00003680  00000-0  24907-3 0  9992,2 52880  53.2196 300.0609 0001777  30.8469 329.2627 15.08858306 27454,6917.824000000001,95.436,540.919,538.46,0.0
52880.0,STARLINK-4186,PAYLOAD,2022-12-10 00:31:01,15.0880449,0.0001346,53.219,296.7883,341.8223,18.2721,0.00015647,2.201e-05,0.0,0 STARLINK-4186,1 52880U 22062BC  22344.02153999  .00002201  00000-0  15647-3 0  9999,2 52880  53.2190 296.7883 0001346 341.8223  18.2721 15.08804490 27565,6917.989000000001,95.44,540.785,538.923,0.0
52880.0,STARLINK-4186,PAYLOAD,2022-12-10 06:52:32,15.08834031,0.0002003,53.2191,295.5995,27.597,332.5128,-6.3759e-05,-1.303e-05,0.0,0 STARLINK-4186,1 52880U 22062BC  22344.28649096 -.00001303  00000-0 -63759-4 0  9997,2 52880  53.2191 295.5995 0002003  27.5970 332.5128 15.08834031 27607,6917.899,95.438,541.149,538.378,0.0
52880.0,STARLINK-4186,PAYLOAD,2022-12-11 06:43:20,15.08841293,0.0002104,53.2196,291.1395,33.2673,326.8451,0.00029161,4.356e-05,0.0,0 STARLINK-4186,1 52880U 22062BC  22345.28009528  .00004356  00000-0  29161-3 0  9995,2 52880  53.2196 291.1395 0002104  33.2673 326.8451 15.08841293 27269,6917.876,95.437,541.197,538.286,0.0
52880.0,STARLINK-4186,PAYLOAD,2022-12-11 19:26:25,15.08845589,0.0002107,53.2196,288.7606,36.3269,323.7866,0.0004682,7.172e-05,0.0,0 STARLINK-4186,1 52880U 22062BC  22345.81001595  .00007172  00000-0  46820-3 0  9990,2 52880  53.2196 288.7606 0002107  36.3269 323.7866 15.08845589 27835,6917.863,95.437,541.186,538.271,0.0
52880.0,STARLINK-4186,PAYLOAD,2022-12-12 04:58:44,15.08839872,0.0002115,53.2186,286.9754,31.2685,328.8432,0.00014688,2.05e-05,0.0,0 STARLINK-4186,1 52880U 22062BC  22346.20745711  .00002050  00000-0  14688-3 0  9996,2 52880  53.2186 286.9754 0002115  31.2685 328.8432 15.08839872 27892,6917.880999999999,95.438,541.2090000000002,538.283,0.0
52880.0,STARLINK-4186,PAYLOAD,2022-12-12 06:34:07,15.08838434,0.0002134,53.2187,286.6783,31.7406,328.3714,0.00010404,1.368e-05,0.0,0 STARLINK-4186,1 52880U 22062BC  22346.27369768  .00001368  00000-0  10404-3 0  9990,2 52880  53.2187 286.6783 0002134  31.7406 328.3714 15.08838434 27418,6917.885,95.438,541.226,538.274,0.0
52880.0,STARLINK-4186,PAYLOAD,2022-12-13 04:49:31,15.08830858,0.0002245,53.2187,282.5152,33.8351,326.2784,-8.5666e-05,-1.651e-05,0.0,0 STARLINK-4186,1 52880U 22062BC  22347.20106350 -.00001651  00000-0 -85666-4 0  9990,2 52880  53.2187 282.5152 0002245  33.8351 326.2784 15.08830858 28044,6917.908,95.438,541.326,538.22,0.0
52880.0,STARLINK-4186,PAYLOAD,2022-12-13 12:46:27,15.08837523,0.0002236,53.2194,281.0285,34.0858,326.0277,2.5285e-05,1.14e-06,0.0,0 STARLINK-4186,1 52880U 22062BC  22347.53226489  .00000114  00000-0  25285-4 0  9994,2 52880  53.2194 281.0285 0002236  34.0858 326.0277 15.08837523 27600,6917.888000000001,95.438,541.3,538.206,0.0
52880.0,STARLINK-4186,PAYLOAD,2022-12-13 20:43:22,15.08843362,0.0002289,53.2191,279.5416,32.4891,327.6241,0.00013514,1.863e-05,0.0,0 STARLINK-4186,1 52880U 22062BC  22347.86345840  .00001863  00000-0  13514-3 0  9996,2 52880  53.2191 279.5416 0002289  32.4891 327.6241 15.08843362 28148,6917.87,95.437,541.319,538.1519999999998,0.0
52880.0,STARLINK-4186,PAYLOAD,2022-12-14 04:40:19,15.08834902,0.0002161,53.2191,278.0552,32.155,327.9573,6.4519e-05,7.39e-06,0.0,0 STARLINK-4186,1 52880U 22062BC  22348.19466575  .00000739  00000-0  64519-4 0  9995,2 52880  53.2191 278.0552 0002161  32.1550 327.9573 15.08834902 28197,6917.896,95.438,541.256,538.266,0.0
52880.0,STARLINK-4186,PAYLOAD,2022-12-14 12:37:14,15.08838442,0.0002142,53.2191,276.5687,33.2997,326.8129,0.00010226,1.34e-05,0.0,0 STARLINK-4186,1 52880U 22062BC  22348.52586338  .00001340  00000-0  10226-3 0  9996,2 52880  53.2191 276.5687 0002142  33.2997 326.8129 15.08838442 27754,6917.885,95.438,541.232,538.268,0.0
52880.0,STARLINK-4186,PAYLOAD,2022-12-15 12:28:01,15.0884714,0.0002243,53.2193,272.1083,35.9216,324.1926,0.00022418,3.282e-05,0.0,0 STARLINK-4186,1 52880U 22062BC  22349.51945661  .00003282  00000-0  22418-3 0  9997,2 52880  53.2193 272.1083 0002243  35.9216 324.1926 15.08847140 28395,6917.859,95.437,541.275,538.172,0.0
